[{"OBJECT_NAME":"STARLINK-32724","OBJECT_ID":"2024-251K","EPOCH":"2026-03-09T23:24:36.866880","MEAN_MOTION":15.30221831,"ECCENTRICITY":6.841e-5,"INCLINATION":53.1596,"RA_OF_ASC_NODE":333.8748,"ARG_OF_PERICENTER":123.8557,"MEAN_ANOMALY":236.2509,"EPHEMERIS_TYPE":0,"CLASSIFICATION_TYPE":"U","NORAD_CAT_ID":62441,"ELEMENT_SET_NO":999,"REV_AT_EPOCH":6783,"BSTAR":0.0011936721,"MEAN_MOTION_DOT":0.00035185,"MEAN_MOTION_DDOT":0},{"OBJECT_NAME":"GEOSCAN 4 (RS92S4)","OBJECT_ID":"2025-155S","EPOCH":"2026-03-09T21:50:07.724832","MEAN_MOTION":15.30369837,"ECCENTRICITY":0.00070968,"INCLINATION":97.4465,"RA_OF_ASC_NODE":37.7626,"ARG_OF_PERICENTER":154.7045,"MEAN_ANOMALY":205.4544,"EPHEMERIS_TYPE":0,"CLASSIFICATION_TYPE":"U","NORAD_CAT_ID":64892,"ELEMENT_SET_NO":999,"REV_AT_EPOCH":6562,"BSTAR":0.00068609503,"MEAN_MOTION_DOT":0.00020121,"MEAN_MOTION_DDOT":0}]
